{
  "type": "FeatureCollection",
  "features": [
    {
      "type": "Feature",
      "properties": {
        "norad_id": 28890,
        "name": "BEIJING 1",
        "group": "dmc",
        "lat": 76.08879109822236,
        "lon": -30.316789547536104,
        "alt_km": 667.0281576877851,
        "timestamp": "2025-12-12T05:47:28.438578+00:00",
        "meta_object_name": "BEIJING 1",
        "meta_object_id": "2005-043A",
        "meta_epoch": "2025-12-12T00:24:26.337600",
        "meta_mean_motion": 14.63365881,
        "meta_eccentricity": 0.00152495,
        "meta_inclination": 98.2653,
        "meta_ra_of_asc_node": 113.5219,
        "meta_arg_of_pericenter": 143.2744,
        "meta_mean_anomaly": 216.9505,
        "meta_ephemeris_type": 0,
        "meta_classification_type": "U",
        "meta_norad_cat_id": 28890,
        "meta_element_set_no": 999,
        "meta_rev_at_epoch": 7327,
        "meta_bstar": 0.00018559147,
        "meta_mean_motion_dot": 9.12e-06,
        "meta_mean_motion_ddot": 0,
        "tle_line1": "1 28890U 05043A   25346.01697150  .00000912  00000+0  18559-3 0  9990",
        "tle_line2": "2 28890  98.2653 113.5219 0015249 143.2744 216.9505 14.63365881 73272"
      },
      "geometry": {
        "type": "Point",
        "coordinates": [
          -30.316789547536104,
          76.08879109822236
        ]
      }
    },
    {
      "type": "Feature",
      "properties": {
        "norad_id": 33320,
        "name": "HUANJING 1A (HJ-1A)",
        "group": "dmc",
        "lat": 81.76205954668201,
        "lon": -137.17000509996527,
        "alt_km": 603.4515830520595,
        "timestamp": "2025-12-12T05:47:28.438603+00:00",
        "meta_object_name": "HUANJING 1A (HJ-1A)",
        "meta_object_id": "2008-041A",
        "meta_epoch": "2025-12-12T00:31:05.435616",
        "meta_mean_motion": 14.83392883,
        "meta_eccentricity": 0.00202184,
        "meta_inclination": 97.6546,
        "meta_ra_of_asc_node": 334.3503,
        "meta_arg_of_pericenter": 36.7759,
        "meta_mean_anomaly": 323.4838,
        "meta_ephemeris_type": 0,
        "meta_classification_type": "U",
        "meta_norad_cat_id": 33320,
        "meta_element_set_no": 999,
        "meta_rev_at_epoch": 93065,
        "meta_bstar": 0.00036800356,
        "meta_mean_motion_dot": 2.979e-05,
        "meta_mean_motion_ddot": 0,
        "tle_line1": "1 33320U 08041A   25346.02159069  .00002979  00000+0  36800-3 0  9992",
        "tle_line2": "2 33320  97.6546 334.3503 0020218  36.7759 323.4838 14.83392883930654"
      },
      "geometry": {
        "type": "Point",
        "coordinates": [
          -137.17000509996527,
          81.76205954668201
        ]
      }
    },
    {
      "type": "Feature",
      "properties": {
        "norad_id": 33321,
        "name": "HUANJING 1B (HJ-1B)",
        "group": "dmc",
        "lat": -44.98184902765218,
        "lon": -14.031410185254776,
        "alt_km": 641.5328067537757,
        "timestamp": "2025-12-12T05:47:28.438619+00:00",
        "meta_object_name": "HUANJING 1B (HJ-1B)",
        "meta_object_id": "2008-041B",
        "meta_epoch": "2025-12-11T23:31:05.420640",
        "meta_mean_motion": 14.82817454,
        "meta_eccentricity": 0.00381835,
        "meta_inclination": 97.6406,
        "meta_ra_of_asc_node": 338.009,
        "meta_arg_of_pericenter": 78.0751,
        "meta_mean_anomaly": 282.4741,
        "meta_ephemeris_type": 0,
        "meta_classification_type": "U",
        "meta_norad_cat_id": 33321,
        "meta_element_set_no": 999,
        "meta_rev_at_epoch": 93066,
        "meta_bstar": 0.00024207386,
        "meta_mean_motion_dot": 1.932e-05,
        "meta_mean_motion_ddot": 0,
        "tle_line1": "1 33321U 08041B   25345.97992385  .00001932  00000+0  24207-3 0  9998",
        "tle_line2": "2 33321  97.6406 338.0090 0038183  78.0751 282.4741 14.82817454930666"
      },
      "geometry": {
        "type": "Point",
        "coordinates": [
          -14.031410185254776,
          -44.98184902765218
        ]
      }
    },
    {
      "type": "Feature",
      "properties": {
        "norad_id": 33446,
        "name": "YAOGAN-4",
        "group": "dmc",
        "lat": -46.18207649506753,
        "lon": 88.0059653029581,
        "alt_km": 629.0751908131406,
        "timestamp": "2025-12-12T05:47:28.438632+00:00",
        "meta_object_name": "YAOGAN-4",
        "meta_object_id": "2008-061A",
        "meta_epoch": "2025-12-11T19:03:10.073376",
        "meta_mean_motion": 14.82677773,
        "meta_eccentricity": 0.00136364,
        "meta_inclination": 97.9179,
        "meta_ra_of_asc_node": 275.9025,
        "meta_arg_of_pericenter": 326.6885,
        "meta_mean_anomaly": 33.3469,
        "meta_ephemeris_type": 0,
        "meta_classification_type": "U",
        "meta_norad_cat_id": 33446,
        "meta_element_set_no": 999,
        "meta_rev_at_epoch": 91789,
        "meta_bstar": 0.00029431307,
        "meta_mean_motion_dot": 2.323e-05,
        "meta_mean_motion_ddot": 0,
        "tle_line1": "1 33446U 08061A   25345.79386659  .00002323  00000+0  29431-3 0  9998",
        "tle_line2": "2 33446  97.9179 275.9025 0013636 326.6885  33.3469 14.82677773917895"
      },
      "geometry": {
        "type": "Point",
        "coordinates": [
          88.0059653029581,
          -46.18207649506753
        ]
      }
    },
    {
      "type": "Feature",
      "properties": {
        "norad_id": 35681,
        "name": "DEIMOS-1",
        "group": "dmc",
        "lat": 10.271649331198342,
        "lon": 145.45978645533214,
        "alt_km": 646.217365976172,
        "timestamp": "2025-12-12T05:47:28.438644+00:00",
        "meta_object_name": "DEIMOS-1",
        "meta_object_id": "2009-041A",
        "meta_epoch": "2025-12-11T23:13:54.203808",
        "meta_mean_motion": 14.7495213,
        "meta_eccentricity": 0.00027278,
        "meta_inclination": 97.715,
        "meta_ra_of_asc_node": 146.607,
        "meta_arg_of_pericenter": 80.9181,
        "meta_mean_anomaly": 279.2337,
        "meta_ephemeris_type": 0,
        "meta_classification_type": "U",
        "meta_norad_cat_id": 35681,
        "meta_element_set_no": 999,
        "meta_rev_at_epoch": 87928,
        "meta_bstar": 0.00022455325,
        "meta_mean_motion_dot": 1.461e-05,
        "meta_mean_motion_ddot": 0,
        "tle_line1": "1 35681U 09041A   25345.96798847  .00001461  00000+0  22455-3 0  9996",
        "tle_line2": "2 35681  97.7150 146.6070 0002727  80.9181 279.2337 14.74952130879286"
      },
      "geometry": {
        "type": "Point",
        "coordinates": [
          145.45978645533214,
          10.271649331198342
        ]
      }
    },
    {
      "type": "Feature",
      "properties": {
        "norad_id": 35683,
        "name": "UK-DMC 2",
        "group": "dmc",
        "lat": 24.009993736717174,
        "lon": 117.63149811210245,
        "alt_km": 642.3016267483481,
        "timestamp": "2025-12-12T05:47:28.438656+00:00",
        "meta_object_name": "UK-DMC 2",
        "meta_object_id": "2009-041C",
        "meta_epoch": "2025-12-11T23:10:19.136064",
        "meta_mean_motion": 14.75620521,
        "meta_eccentricity": 0.00014383,
        "meta_inclination": 97.8562,
        "meta_ra_of_asc_node": 120.8897,
        "meta_arg_of_pericenter": 96.0909,
        "meta_mean_anomaly": 264.0464,
        "meta_ephemeris_type": 0,
        "meta_classification_type": "U",
        "meta_norad_cat_id": 35683,
        "meta_element_set_no": 999,
        "meta_rev_at_epoch": 87895,
        "meta_bstar": 0.00029533236,
        "meta_mean_motion_dot": 1.966e-05,
        "meta_mean_motion_ddot": 0,
        "tle_line1": "1 35683U 09041C   25345.96549926  .00001966  00000+0  29533-3 0  9994",
        "tle_line2": "2 35683  97.8562 120.8897 0001438  96.0909 264.0464 14.75620521878954"
      },
      "geometry": {
        "type": "Point",
        "coordinates": [
          117.63149811210245,
          24.009993736717174
        ]
      }
    },
    {
      "type": "Feature",
      "properties": {
        "norad_id": 40715,
        "name": "DMC3-FM1",
        "group": "dmc",
        "lat": 55.00613193063626,
        "lon": -157.64533865601518,
        "alt_km": 607.1010835480638,
        "timestamp": "2025-12-12T05:47:28.438666+00:00",
        "meta_object_name": "DMC3-FM1",
        "meta_object_id": "2015-032A",
        "meta_epoch": "2025-12-12T00:41:28.281120",
        "meta_mean_motion": 14.85438297,
        "meta_eccentricity": 0.00047601,
        "meta_inclination": 97.6689,
        "meta_ra_of_asc_node": 213.2474,
        "meta_arg_of_pericenter": 324.8362,
        "meta_mean_anomaly": 35.2538,
        "meta_ephemeris_type": 0,
        "meta_classification_type": "U",
        "meta_norad_cat_id": 40715,
        "meta_element_set_no": 999,
        "meta_rev_at_epoch": 56212,
        "meta_bstar": 0.00013620454,
        "meta_mean_motion_dot": 1.123e-05,
        "meta_mean_motion_ddot": 0,
        "tle_line1": "1 40715U 15032A   25346.02879955  .00001123  00000+0  13620-3 0  9994",
        "tle_line2": "2 40715  97.6689 213.2474 0004760 324.8362  35.2538 14.85438297562125"
      },
      "geometry": {
        "type": "Point",
        "coordinates": [
          -157.64533865601518,
          55.00613193063626
        ]
      }
    },
    {
      "type": "Feature",
      "properties": {
        "norad_id": 40716,
        "name": "DMC3-FM2",
        "group": "dmc",
        "lat": -63.507190589980084,
        "lon": -129.4081911900761,
        "alt_km": 616.2272883240448,
        "timestamp": "2025-12-12T05:47:28.438677+00:00",
        "meta_object_name": "DMC3-FM2",
        "meta_object_id": "2015-032B",
        "meta_epoch": "2025-12-11T23:36:52.092000",
        "meta_mean_motion": 14.854392,
        "meta_eccentricity": 0.00054334,
        "meta_inclination": 97.6745,
        "meta_ra_of_asc_node": 214.6474,
        "meta_arg_of_pericenter": 329.1577,
        "meta_mean_anomaly": 30.9318,
        "meta_ephemeris_type": 0,
        "meta_classification_type": "U",
        "meta_norad_cat_id": 40716,
        "meta_element_set_no": 999,
        "meta_rev_at_epoch": 56211,
        "meta_bstar": 0.00017227858,
        "meta_mean_motion_dot": 1.434e-05,
        "meta_mean_motion_ddot": 0,
        "tle_line1": "1 40716U 15032B   25345.98393625  .00001434  00000+0  17228-3 0  9997",
        "tle_line2": "2 40716  97.6745 214.6474 0005433 329.1577  30.9318 14.85439200562110"
      },
      "geometry": {
        "type": "Point",
        "coordinates": [
          -129.4081911900761,
          -63.507190589980084
        ]
      }
    },
    {
      "type": "Feature",
      "properties": {
        "norad_id": 40717,
        "name": "DMC3-FM3",
        "group": "dmc",
        "lat": -0.08436758155386194,
        "lon": 36.51661480623812,
        "alt_km": 618.1341268423676,
        "timestamp": "2025-12-12T05:47:28.438687+00:00",
        "meta_object_name": "DMC3-FM3",
        "meta_object_id": "2015-032C",
        "meta_epoch": "2025-12-12T00:07:59.873376",
        "meta_mean_motion": 14.85429796,
        "meta_eccentricity": 0.00046824,
        "meta_inclination": 97.6801,
        "meta_ra_of_asc_node": 216.3006,
        "meta_arg_of_pericenter": 331.382,
        "meta_mean_anomaly": 28.7137,
        "meta_ephemeris_type": 0,
        "meta_classification_type": "U",
        "meta_norad_cat_id": 40717,
        "meta_element_set_no": 999,
        "meta_rev_at_epoch": 56212,
        "meta_bstar": 0.00017790383,
        "meta_mean_motion_dot": 1.482e-05,
        "meta_mean_motion_ddot": 0,
        "tle_line1": "1 40717U 15032C   25346.00555409  .00001482  00000+0  17790-3 0  9999",
        "tle_line2": "2 40717  97.6801 216.3006 0004682 331.3820  28.7137 14.85429796562129"
      },
      "geometry": {
        "type": "Point",
        "coordinates": [
          36.51661480623812,
          -0.08436758155386194
        ]
      }
    }
  ]
}